[{"OBJECT_NAME":"OBJECT V","OBJECT_ID":"2023-085V","EPOCH":"2026-03-09T21:44:00.165408","MEAN_MOTION":15.30745852,"ECCENTRICITY":0.00069081,"INCLINATION":97.4843,"RA_OF_ASC_NODE":179.3833,"ARG_OF_PERICENTER":71.0503,"MEAN_ANOMALY":289.1485,"EPHEMERIS_TYPE":0,"CLASSIFICATION_TYPE":"U","NORAD_CAT_ID":57023,"ELEMENT_SET_NO":999,"REV_AT_EPOCH":15149,"BSTAR":0.00067780507,"MEAN_MOTION_DOT":0.00020109,"MEAN_MOTION_DDOT":0},{"OBJECT_NAME":"STARLINK-33649","OBJECT_ID":"2025-065T","EPOCH":"2026-03-08T09:24:56.430720","MEAN_MOTION":15.27567524,"ECCENTRICITY":0.00015378,"INCLINATION":43.0025,"RA_OF_ASC_NODE":114.1609,"ARG_OF_PERICENTER":263.9553,"MEAN_ANOMALY":96.1124,"EPHEMERIS_TYPE":0,"CLASSIFICATION_TYPE":"U","NORAD_CAT_ID":63416,"ELEMENT_SET_NO":999,"REV_AT_EPOCH":5264,"BSTAR":0.0012663599,"MEAN_MOTION_DOT":0.00034736,"MEAN_MOTION_DDOT":0}]
